0 COSMOS 2251 DEB
1 35059U 93036AHN 13282.51670120  .00007651  00000-0  21567-2 0  6653
2 35059 074.0020 110.9700 0035003 236.8358 153.2137 14.45555261234819
0 COSMOS 2251 DEB
1 35059U 93036AHN 13283.99464841  .00007745  00000-0  21825-2 0  6669
2 35059 074.0013 108.2086 0034879 233.6050 284.6103 14.45567645235038
0 COSMOS 2251 DEB
1 35059U 93036AHN 13285.93096395  .00007141  00000-0  20122-2 0  6670
2 35059 074.0021 104.5907 0034912 229.8270 281.0785 14.45592374235312
0 COSMOS 2251 DEB
1 35059U 93036AHN 13290.47527728  .00011156  00000-0  31318-2 0  6685
2 35059 074.0004 096.0976 0035320 220.5139 170.6490 14.45666257235969
0 COSMOS 2251 DEB
1 35059U 93036AHN 13291.44226883  .00010115  00000-0  28401-2 0  6695
2 35059 074.0025 094.2913 0034825 218.6775 163.0947 14.45684706236105
0 COSMOS 2251 DEB
1 35059U 93036AHN 13293.45083247  .00011171  00000-0  31330-2 0  6703
2 35059 074.0031 090.5379 0034755 214.7878 176.3971 14.45720808236399
0 COSMOS 2251 DEB
1 35059U 93036AHN 13295.53854779  .00013608  00000-0  38105-2 0  6715
2 35059 074.0031 086.6362 0034723 210.7430 241.9169 14.45759983236701
